CCSDS_OMM_VERS = 2.0
CREATION_DATE  = 
ORIGINATOR     = 

OBJECT_NAME    = XRISM
OBJECT_ID      = 2023-137A
CENTER_NAME    = EARTH
REF_FRAME      = TEME
TIME_SYSTEM    = UTC
MEAN_ELEMENT_THEORY = SGP/SGP4

EPOCH          = 2026-04-02T19:23:27.863232
MEAN_MOTION    = 15.11792770
ECCENTRICITY   = .00078705
INCLINATION    = 31.0012
RA_OF_ASC_NODE = 127.6308
ARG_OF_PERICENTER = 281.4500
MEAN_ANOMALY   = 78.5255

EPHEMERIS_TYPE = 0
CLASSIFICATION_TYPE = U
NORAD_CAT_ID   = 57800
ELEMENT_SET_NO = 999
REV_AT_EPOCH   = 14144
BSTAR          = .52045606E-3
MEAN_MOTION_DOT = .9214E-4
MEAN_MOTION_DDOT = 0

CCSDS_OMM_VERS = 2.0
CREATION_DATE  = 
ORIGINATOR     = 

OBJECT_NAME    = ACS3
OBJECT_ID      = 2024-077B
CENTER_NAME    = EARTH
REF_FRAME      = TEME
TIME_SYSTEM    = UTC
MEAN_ELEMENT_THEORY = SGP/SGP4

EPOCH          = 2026-04-03T06:10:20.124768
MEAN_MOTION    = 13.90815069
ECCENTRICITY   = .00733036
INCLINATION    = 97.1956
RA_OF_ASC_NODE = 28.8477
ARG_OF_PERICENTER = 21.0974
MEAN_ANOMALY   = 339.3187

EPHEMERIS_TYPE = 0
CLASSIFICATION_TYPE = U
NORAD_CAT_ID   = 59588
ELEMENT_SET_NO = 999
REV_AT_EPOCH   = 9761
BSTAR          = .22507953E-1
MEAN_MOTION_DOT = .28837E-3
MEAN_MOTION_DDOT = 0

CCSDS_OMM_VERS = 2.0
CREATION_DATE  = 
ORIGINATOR     = 

OBJECT_NAME    = HTV-X1
OBJECT_ID      = 2025-241A
CENTER_NAME    = EARTH
REF_FRAME      = TEME
TIME_SYSTEM    = UTC
MEAN_ELEMENT_THEORY = SGP/SGP4

EPOCH          = 2026-04-03T05:38:32.920800
MEAN_MOTION    = 15.32512226
ECCENTRICITY   = .00072787
INCLINATION    = 51.6362
RA_OF_ASC_NODE = 314.7548
ARG_OF_PERICENTER = 267.5183
MEAN_ANOMALY   = 92.4966

EPHEMERIS_TYPE = 0
CLASSIFICATION_TYPE = U
NORAD_CAT_ID   = 66174
ELEMENT_SET_NO = 999
REV_AT_EPOCH   = 2470
BSTAR          = .16087195E-3
MEAN_MOTION_DOT = .476E-4
MEAN_MOTION_DDOT = 0

CCSDS_OMM_VERS = 2.0
CREATION_DATE  = 
ORIGINATOR     = 

OBJECT_NAME    = SZ-21 MODULE
OBJECT_ID      = 2025-246C
CENTER_NAME    = EARTH
REF_FRAME      = TEME
TIME_SYSTEM    = UTC
MEAN_ELEMENT_THEORY = SGP/SGP4

EPOCH          = 2026-04-03T06:04:09.839424
MEAN_MOTION    = 15.70567905
ECCENTRICITY   = .00028919
INCLINATION    = 41.4748
RA_OF_ASC_NODE = 51.9348
ARG_OF_PERICENTER = 225.3271
MEAN_ANOMALY   = 134.7336

EPHEMERIS_TYPE = 0
CLASSIFICATION_TYPE = U
NORAD_CAT_ID   = 66515
ELEMENT_SET_NO = 999
REV_AT_EPOCH   = 2193
BSTAR          = .47388464E-3
MEAN_MOTION_DOT = .60256E-3
MEAN_MOTION_DDOT = 0

